ONEWEB-0223             
1 48768U 21045B   26193.67247124  .00001519  00000+0  40007-2 0  9997
2 48768  87.8987 254.1132 0002520 111.2164 248.9236 13.15540427247756
ONEWEB-0230             
1 48769U 21045C   26194.17635730 -.00000040  00000+0 -14146-3 0  9994
2 48769  87.8983 254.0257 0001885  94.7364 265.3982 13.15548264248085
ONEWEB-0237             
1 48770U 21045D   26194.16526208  .00000144  00000+0  34932-3 0  9992
2 48770  87.8983 254.0295 0002375  96.9346 263.2054 13.15548203247807
ONEWEB-0235             
1 48771U 21045E   26193.68354990  .00000102  00000+0  23770-3 0  9998
2 48771  87.8983 254.1145 0002125 139.6130 220.5159 13.15549613247732
ONEWEB-0242             
1 48772U 21045F   26194.51386001 -.00000018  00000+0 -81884-4 0  9999
2 48772  87.8996 253.9451 0001955 102.2069 257.9281 13.15548658247885
ONEWEB-0241             
1 48773U 21045G   26193.66453807 -.00000830  00000+0 -22391-2 0  9992
2 48773  87.8984 254.1294 0002355 103.4648 256.6745 13.15543741247689
ONEWEB-0243             
1 48774U 21045H   26194.15257949  .00000138  00000+0  33304-3 0  9993
2 48774  87.8984 254.0454 0001785 111.4478 248.6843 13.15550380247770
ONEWEB-0222             
1 48775U 21045J   26193.67959773  .00000048  00000+0  94351-4 0  9994
2 48775  87.8989 254.1096 0002224 105.3870 254.7506 13.15547028247753
ONEWEB-0244             
1 48776U 21045K   26193.70575203  .00000116  00000+0  27524-3 0  9994
2 48776  87.9001 254.0998 0002020 104.1286 256.0069 13.15548501248322
ONEWEB-0247             
1 48777U 21045L   26193.70258188  .00000173  00000+0  42657-3 0  9992
2 48777  87.8984 254.1294 0002029 122.6943 237.4383 13.15548626247763
ONEWEB-0245             
1 48778U 21045M   26193.69781870  .00000054  00000+0  10843-3 0  9990
2 48778  87.8986 254.1129 0002143 105.5921 254.5446 13.15549123247736
ONEWEB-0229             
1 48779U 21045N   26194.14941805  .00000152  00000+0  37099-3 0  9999
2 48779  87.8998 254.0204 0002090 106.0292 254.1069 13.15547436247823
ONEWEB-0228             
1 48780U 21045P   26193.72648158 -.00000078  00000+0 -24093-3 0  9998
2 48780  87.8998 254.0978 0002089 102.5033 257.6331 13.15549199247687
ONEWEB-0232             
1 48781U 21045Q   26194.15734423  .00000262  00000+0  66127-3 0  9995
2 48781  87.9001 254.0117 0002181  99.6807 260.4570 13.15548226248067
ONEWEB-0231             
1 48782U 21045R   26193.67881137  .00000148  00000+0  35951-3 0  9991
2 48782  87.8995 254.1188 0002206 103.3557 256.7819 13.15547632247693
ONEWEB-0234             
1 48783U 21045S   26193.71670157  .00000076  00000+0  16693-3 0  9997
2 48783  87.9000 254.0928 0002511 102.7316 257.4096 13.15547396247836
ONEWEB-0238             
1 48784U 21045T   26194.17330846  .00000058  00000+0  11951-3 0  9999
2 48784  87.9006 253.9979 0002368  95.8544 264.2856 13.15548324247799
ONEWEB-0240             
1 48785U 21045U   26193.66216924 -.00000104  00000+0 -31045-3 0  9993
2 48785  87.8996 254.1108 0002360 104.8282 255.3110 13.15548817247753
ONEWEB-0246             
1 48786U 21045V   26193.65662694 -.00000072  00000+0 -22615-3 0  9999
2 48786  87.8994 254.1156 0002025  98.9140 261.2219 13.15547883247623
ONEWEB-0210             
1 48787U 21045W   26193.70733265  .00000105  00000+0  24571-3 0  9997
2 48787  87.8995 254.1029 0001735 132.4109 227.7168 13.15548009247676
ONEWEB-0214             
1 48788U 21045X   26194.17237909 -.00000006  00000+0 -49252-4 0  9990
2 48788  87.9006 254.0052 0001717 111.7592 248.3721 13.15546597247700
ONEWEB-0221             
1 48789U 21045Y   26194.17952609  .00000095  00000+0  21836-3 0  9995
2 48789  87.8999 254.0133 0002191 103.6882 256.4493 13.15548668247796
ONEWEB-0213             
1 48790U 21045Z   26194.16843345  .00000126  00000+0  30118-3 0  9990
2 48790  87.8995 254.0192 0002048 108.1820 251.9534 13.15548592247851
ONEWEB-0212             
1 48791U 21045AA  26194.14544454  .00000113  00000+0  26707-3 0  9993
2 48791  87.8989 254.0187 0002119 101.1922 258.9447 13.15547516247848
ONEWEB-0227             
1 48792U 21045AB  26193.68832030  .00000063  00000+0  13451-3 0  9998
2 48792  87.8991 254.1094 0002114 101.5691 258.5677 13.15547682247735
ONEWEB-0226             
1 48793U 21045AC  26193.68197887  .00000163  00000+0  39817-3 0  9998
2 48793  87.8985 254.1160 0001956 107.4745 252.6599 13.15547764247707
ONEWEB-0224             
1 48794U 21045AD  26194.17794278 -.00000003  00000+0 -42286-4 0  9991
2 48794  87.8989 254.0485 0002942  99.4261 260.7202 13.15548630247692
ONEWEB-0233             
1 48795U 21045AE  26194.48678147 -.00000016  00000+0 -77684-4 0  9996
2 48795  87.8985 253.9943 0002229 104.9826 255.1551 13.15550609247754
ONEWEB-0190             
1 48796U 21045AF  26193.71367227  .00000065  00000+0  13812-3 0  9990
2 48796  87.8992 254.1124 0002174 117.2161 242.9191 13.15548656247725
ONEWEB-0236             
1 48797U 21045AG  26193.65504762 -.00000093  00000+0 -28103-3 0  9993
2 48797  87.8984 254.1319 0002156  95.2359 264.9017 13.15548119247609
