OBJECT_NAME,OBJECT_ID,EPOCH,MEAN_MOTION,ECCENTRICITY,INCLINATION,RA_OF_ASC_NODE,ARG_OF_PERICENTER,MEAN_ANOMALY,EPHEMERIS_TYPE,CLASSIFICATION_TYPE,NORAD_CAT_ID,ELEMENT_SET_NO,REV_AT_EPOCH,BSTAR,MEAN_MOTION_DOT,MEAN_MOTION_DDOT
ONEWEB-0223,2021-045B,2026-07-12T16:08:21.515136,13.15540427,.00025202,87.8987,254.1132,111.2164,248.9236,0,U,48768,999,24775,.40006957E-2,.1519E-4,0
ONEWEB-0230,2021-045C,2026-07-13T04:13:57.270720,13.15548264,.00018853,87.8983,254.0257,94.7364,265.3982,0,U,48769,999,24808,-.1414605E-3,-.4E-6,0
ONEWEB-0237,2021-045D,2026-07-13T03:57:58.643712,13.15548203,.00023754,87.8983,254.0295,96.9346,263.2054,0,U,48770,999,24780,.34931718E-3,.144E-5,0
ONEWEB-0235,2021-045E,2026-07-12T16:24:18.711360,13.15549613,.00021258,87.8983,254.1145,139.6130,220.5159,0,U,48771,999,24773,.23769995E-3,.102E-5,0
ONEWEB-0242,2021-045F,2026-07-13T12:19:57.504864,13.15548658,.0001955,87.8996,253.9451,102.2069,257.9281,0,U,48772,999,24788,-.81884E-4,-.18E-6,0
ONEWEB-0241,2021-045G,2026-07-12T15:56:56.089248,13.15543741,.00023556,87.8984,254.1294,103.4648,256.6745,0,U,48773,999,24768,-.22391136E-2,-.83E-5,0
ONEWEB-0243,2021-045H,2026-07-13T03:39:42.867936,13.15550380,.00017852,87.8984,254.0454,111.4478,248.6843,0,U,48774,999,24777,.33303667E-3,.138E-5,0
ONEWEB-0222,2021-045J,2026-07-12T16:18:37.243872,13.15547028,.00022248,87.8989,254.1096,105.3870,254.7506,0,U,48775,999,24775,.94351086E-4,.48E-6,0
ONEWEB-0244,2021-045K,2026-07-12T16:56:16.975392,13.15548501,.00020207,87.9001,254.0998,104.1286,256.0069,0,U,48776,999,24832,.27524049E-3,.116E-5,0
ONEWEB-0247,2021-045L,2026-07-12T16:51:43.074432,13.15548626,.00020293,87.8984,254.1294,122.6943,237.4383,0,U,48777,999,24776,.42656874E-3,.173E-5,0
ONEWEB-0245,2021-045M,2026-07-12T16:44:51.535680,13.15549123,.00021433,87.8986,254.1129,105.5921,254.5446,0,U,48778,999,24773,.10843425E-3,.54E-6,0
ONEWEB-0229,2021-045N,2026-07-13T03:35:09.719520,13.15547436,.00020901,87.8998,254.0204,106.0292,254.1069,0,U,48779,999,24782,.3709919E-3,.152E-5,0
ONEWEB-0228,2021-045P,2026-07-12T17:26:08.008512,13.15549199,.00020893,87.8998,254.0978,102.5033,257.6331,0,U,48780,999,24768,-.24092522E-3,-.78E-6,0
ONEWEB-0232,2021-045Q,2026-07-13T03:46:34.541472,13.15548226,.00021811,87.9001,254.0117,99.6807,260.4570,0,U,48781,999,24806,.66127148E-3,.262E-5,0
ONEWEB-0231,2021-045R,2026-07-12T16:17:29.302368,13.15547632,.00022065,87.8995,254.1188,103.3557,256.7819,0,U,48782,999,24769,.35951134E-3,.148E-5,0
ONEWEB-0234,2021-045S,2026-07-12T17:12:03.015648,13.15547396,.00025115,87.9000,254.0928,102.7316,257.4096,0,U,48783,999,24783,.16693316E-3,.76E-6,0
ONEWEB-0238,2021-045T,2026-07-13T04:09:33.850944,13.15548324,.00023681,87.9006,253.9979,95.8544,264.2856,0,U,48784,999,24779,.11951452E-3,.58E-6,0
ONEWEB-0240,2021-045U,2026-07-12T15:53:31.422336,13.15548817,.00023601,87.8996,254.1108,104.8282,255.3110,0,U,48785,999,24775,-.31044887E-3,-.104E-5,0
ONEWEB-0246,2021-045V,2026-07-12T15:45:32.567616,13.15547883,.00020251,87.8994,254.1156,98.9140,261.2219,0,U,48786,999,24762,-.22614957E-3,-.72E-6,0
ONEWEB-0210,2021-045W,2026-07-12T16:58:33.540960,13.15548009,.00017352,87.8995,254.1029,132.4109,227.7168,0,U,48787,999,24767,.24570919E-3,.105E-5,0
ONEWEB-0214,2021-045X,2026-07-13T04:08:13.553376,13.15546597,.00017173,87.9006,254.0052,111.7592,248.3721,0,U,48788,999,24770,-.4925177E-4,-.6E-7,0
ONEWEB-0221,2021-045Y,2026-07-13T04:18:31.054176,13.15548668,.00021915,87.8999,254.0133,103.6882,256.4493,0,U,48789,999,24779,.21836396E-3,.95E-6,0
ONEWEB-0213,2021-045Z,2026-07-13T04:02:32.650080,13.15548592,.00020486,87.8995,254.0192,108.1820,251.9534,0,U,48790,999,24785,.30117555E-3,.126E-5,0
ONEWEB-0212,2021-045AA,2026-07-13T03:29:26.408256,13.15547516,.00021198,87.8989,254.0187,101.1922,258.9447,0,U,48791,999,24784,.26707011E-3,.113E-5,0
ONEWEB-0227,2021-045AB,2026-07-12T16:31:10.873920,13.15547682,.00021147,87.8991,254.1094,101.5691,258.5677,0,U,48792,999,24773,.13450945E-3,.63E-6,0
ONEWEB-0226,2021-045AC,2026-07-12T16:22:02.974368,13.15547764,.0001956,87.8985,254.1160,107.4745,252.6599,0,U,48793,999,24770,.39817112E-3,.163E-5,0
ONEWEB-0224,2021-045AD,2026-07-13T04:16:14.256192,13.15548630,.00029429,87.8989,254.0485,99.4261,260.7202,0,U,48794,999,24769,-.42286052E-4,-.3E-7,0
ONEWEB-0233,2021-045AE,2026-07-13T11:40:57.919008,13.15550609,.0002229,87.8985,253.9943,104.9826,255.1551,0,U,48795,999,24775,-.77684E-4,-.16E-6,0
ONEWEB-0190,2021-045AF,2026-07-12T17:07:41.284128,13.15548656,.00021745,87.8992,254.1124,117.2161,242.9191,0,U,48796,999,24772,.13811769E-3,.65E-6,0
ONEWEB-0236,2021-045AG,2026-07-12T15:43:16.114368,13.15548119,.00021566,87.8984,254.1319,95.2359,264.9017,0,U,48797,999,24760,-.2810328E-3,-.93E-6,0
